[Satellite]
VERSION=1.1
NAME=SL-14 R/B
NICKNAME=SL-14 R/B
TLE1=1 11672U 80005B   22342.45899214  .00000517  00000+0  53042-4 0  9995
TLE2=2 11672  82.5148 350.9836 0017366 150.7667 209.4527 14.88360105299742
STATUS=0
